NORAD_CAT_ID,OBJECT_NAME,OBJECT_TYPE,EPOCH,MEAN_MOTION,ECCENTRICITY,INCLINATION,RA_OF_ASC_NODE,ARG_OF_PERICENTER,MEAN_ANOMALY,BSTAR,MEAN_MOTION_DOT,MEAN_MOTION_DDOT,TLE_LINE0,TLE_LINE1,TLE_LINE2,SEMIMAJOR_AXIS,PERIOD,APOGEE,PERIGEE,DECAYED
53930.0,STARLINK-5010,PAYLOAD,2024-03-01 03:28:27,15.08839411,0.0001509,53.2191,19.3155,92.5341,267.5824,-6.1815e-06,-3.86e-06,0.0,0 STARLINK-5010,1 53930U 22119AW  24061.14476150 -.00000386  00000-0 -61815-5 0  9991,2 53930  53.2191  19.3155 0001509  92.5341 267.5824 15.08839411 80479,6917.882,95.438,540.791,538.703,0.0
53930.0,STARLINK-5010,PAYLOAD,2024-03-01 14:36:09,15.08841231,0.0001426,53.2183,17.235,96.0701,264.0454,5.1083e-06,-2.07e-06,0.0,0 STARLINK-5010,1 53930U 22119AW  24061.60843916 -.00000207  00000-0  51083-5 0  9997,2 53930  53.2183  17.2350 0001426  96.0701 264.0454 15.08841231 80127,6917.877,95.437,540.728,538.755,0.0
53930.0,STARLINK-5010,PAYLOAD,2024-03-02 01:43:50,15.08843888,0.0001444,53.2183,15.1539,96.7449,263.3707,8.0829e-05,9.99e-06,0.0,0 STARLINK-5010,1 53930U 22119AW  24062.07211478  .00000999  00000-0  80829-4 0  9997,2 53930  53.2183  15.1539 0001444  96.7449 263.3707 15.08843888 80616,6917.869,95.437,540.732,538.735,0.0
53930.0,STARLINK-5010,PAYLOAD,2024-03-03 03:10:02,15.08828221,0.0001334,53.2179,10.3973,63.5941,296.5188,-6.5307e-05,-1.327e-05,0.0,0 STARLINK-5010,1 53930U 22119AW  24063.13196969 -.00001327  00000-0 -65307-4 0  9994,2 53930  53.2179  10.3973 0001334  63.5941 296.5188 15.08828221 80353,6917.916,95.438,540.704,538.859,0.0
53930.0,STARLINK-5010,PAYLOAD,2024-03-04 03:00:47,15.08851056,0.0001515,53.2195,5.9393,103.2028,256.9133,0.00014151,1.966e-05,0.0,0 STARLINK-5010,1 53930U 22119AW  24064.12555474  .00001966  00000-0  14151-3 0  9991,2 53930  53.2195   5.9393 0001515 103.2028 256.9133 15.08851056 80505,6917.847,95.437,540.76,538.664,0.0
53930.0,STARLINK-5010,PAYLOAD,2024-03-04 12:33:07,15.08842009,0.0001509,53.2191,4.1488,90.4624,269.6541,7.9571e-05,9.79e-06,0.0,0 STARLINK-5010,1 53930U 22119AW  24064.52300086  .00000979  00000-0  79571-4 0  9993,2 53930  53.2191   4.1488 0001509  90.4624 269.6541 15.08842009 80983,6917.874,95.437,540.783,538.695,0.0
53930.0,STARLINK-5010,PAYLOAD,2024-03-05 01:16:12,15.08830253,0.0001499,53.2197,1.7783,99.9039,260.2123,0.00013856,1.917e-05,0.0,0 STARLINK-5010,1 53930U 22119AW  24065.05292698  .00001917  00000-0  13856-3 0  9997,2 53930  53.2197   1.7783 0001499  99.9039 260.2123 15.08830253 80646,6917.91,95.438,540.812,538.738,0.0
53930.0,STARLINK-5010,PAYLOAD,2024-03-05 04:26:58,15.08843206,0.0001235,53.2185,1.1786,75.4653,284.6476,0.00019749,2.857e-05,0.0,0 STARLINK-5010,1 53930U 22119AW  24065.18539727  .00002857  00000-0  19749-3 0  9999,2 53930  53.2185   1.1786 0001235  75.4653 284.6476 15.08843206 81081,6917.871,95.437,540.59,538.881,0.0
53930.0,STARLINK-5010,PAYLOAD,2024-03-05 12:23:54,15.08837944,0.0001528,53.2193,359.6897,60.3243,299.7902,0.00014407,2.006e-05,0.0,0 STARLINK-5010,1 53930U 22119AW  24065.51660382  .00002006  00000-0  14407-3 0  9990,2 53930  53.2193 359.6897 0001528  60.3243 299.7902 15.08837944 80719,6917.887,95.438,540.809,538.695,0.0
53930.0,STARLINK-5010,PAYLOAD,2024-03-06 04:17:46,15.0884702,0.0001575,53.2199,356.718,82.0311,278.086,-3.8018e-05,-8.93e-06,0.0,0 STARLINK-5010,1 53930U 22119AW  24066.17900631 -.00000893  00000-0 -38018-4 0  9996,2 53930  53.2199 356.7180 0001575  82.0311 278.0860 15.08847020 81234,6917.859,95.437,540.813,538.634,0.0
53930.0,STARLINK-5010,PAYLOAD,2024-03-06 18:36:14,15.08835019,0.0001541,53.2197,354.0439,76.8158,283.3006,4.4381e-05,4.18e-06,0.0,0 STARLINK-5010,1 53930U 22119AW  24066.77517157  .00000418  00000-0  44381-4 0  9990,2 53930  53.2197 354.0439 0001541  76.8158 283.3006 15.08835019 80902,6917.896,95.438,540.827,538.695,0.0
53930.0,STARLINK-5010,PAYLOAD,2024-03-07 12:05:28,15.0885155,0.000133,53.2193,350.7725,87.2209,272.8935,3.1793e-05,2.18e-06,0.0,0 STARLINK-5010,1 53930U 22119AW  24067.50379955  .00000218  00000-0  31793-4 0  9995,2 53930  53.2193 350.7725 0001330  87.2209 272.8935 15.08851550 81439,6917.845,95.437,540.63,538.79,0.0
53930.0,STARLINK-5010,PAYLOAD,2024-03-08 02:23:57,15.08836791,0.0001664,53.2197,348.095,85.9548,274.1634,-2.4393e-05,-6.76e-06,0.0,0 STARLINK-5010,1 53930U 22119AW  24068.09997380 -.00000676  00000-0 -24393-4 0  9996,2 53930  53.2197 348.0950 0001664  85.9548 274.1634 15.08836791 81109,6917.89,95.438,540.906,538.604,0.0
53930.0,STARLINK-5010,PAYLOAD,2024-03-08 11:56:15,15.08850384,0.0001616,53.2202,346.3076,90.97,269.1478,8.0739e-05,9.98e-06,0.0,0 STARLINK-5010,1 53930U 22119AW  24068.49740037  .00000998  00000-0  80739-4 0  9996,2 53930  53.2202 346.3076 0001616  90.9700 269.1478 15.08850384 81585,6917.849,95.437,540.832,538.596,0.0
53930.0,STARLINK-5010,PAYLOAD,2024-03-09 03:50:07,15.0884265,0.000168,53.2199,343.3345,110.6238,249.4934,-6.9752e-06,-3.99e-06,0.0,0 STARLINK-5010,1 53930U 22119AW  24069.15980752 -.00000399  00000-0 -69752-5 0  9990,2 53930  53.2199 343.3345 0001680 110.6238 249.4934 15.08842650 81263,6917.872,95.437,540.899,538.575,0.0
53930.0,STARLINK-5010,PAYLOAD,2024-03-09 11:47:02,15.08848762,0.000177,53.2212,341.85,79.6717,280.4474,8.7687e-05,1.108e-05,0.0,0 STARLINK-5010,1 53930U 22119AW  24069.49100178  .00001108  00000-0  87687-4 0  9996,2 53930  53.2212 341.8500 0001770  79.6717 280.4474 15.08848762 81737,6917.854,95.437,540.943,538.494,0.0
53930.0,STARLINK-5010,PAYLOAD,2024-03-10 03:40:53,15.08845752,0.0001783,53.2209,338.8765,110.3267,249.7917,4.7765e-05,4.72e-06,0.0,0 STARLINK-5010,1 53930U 22119AW  24070.15340218  .00000472  00000-0  47765-4 0  9998,2 53930  53.2209 338.8765 0001783 110.3267 249.7917 15.08845752 81836,6917.863,95.437,540.961,538.494,0.0
53930.0,STARLINK-5010,PAYLOAD,2024-03-10 21:10:07,15.08889475,8.48e-05,53.221,335.6037,68.2977,291.8106,-0.00079045,-0.00012862,0.0,0 STARLINK-5010,1 53930U 22119AW  24070.88203250 -.00012862  00000-0 -79045-3 0  9995,2 53930  53.2210 335.6037 0000848  68.2977 291.8106 15.08889475 81529,6917.729,95.434,540.181,539.008,0.0
53930.0,STARLINK-5010,PAYLOAD,2024-03-10 22:45:31,15.08853884,0.0001179,53.2197,335.3062,91.1361,268.9766,-0.00030362,-5.119e-05,0.0,0 STARLINK-5010,1 53930U 22119AW  24070.94828318 -.00005119  00000-0 -30362-3 0  9996,2 53930  53.2197 335.3062 0001179  91.1361 268.9766 15.08853884 81957,6917.838,95.437,540.519,538.887,0.0
53930.0,STARLINK-5010,PAYLOAD,2024-03-11 03:31:42,15.08818187,0.0001405,53.2192,334.416,87.75,272.3653,0.00011099,1.478e-05,0.0,0 STARLINK-5010,1 53930U 22119AW  24071.14701726  .00001478  00000-0  11099-3 0  9990,2 53930  53.2192 334.4160 0001405  87.7500 272.3653 15.08818187 81567,6917.947,95.439,540.784,538.84,0.0
53930.0,STARLINK-5010,PAYLOAD,2024-03-12 00:11:42,15.08839533,0.0001345,53.2186,330.5511,92.0659,268.0488,-4.831e-05,-1.057e-05,0.0,0 STARLINK-5010,1 53930U 22119AW  24072.00813242 -.00001057  00000-0 -48310-4 0  9995,2 53930  53.2186 330.5511 0001345  92.0659 268.0488 15.08839533 81694,6917.882,95.438,540.677,538.816,0.0
53930.0,STARLINK-5010,PAYLOAD,2024-03-12 16:05:33,15.08867212,0.0001166,53.2184,327.5771,83.2591,276.8534,-0.00037672,-6.283e-05,0.0,0 STARLINK-5010,1 53930U 22119AW  24072.67052123 -.00006283  00000-0 -37672-3 0  9995,2 53930  53.2184 327.5771 0001166  83.2591 276.8534 15.08867212 81799,6917.797,95.436,540.469,538.856,0.0
53930.0,STARLINK-5010,PAYLOAD,2024-03-13 00:02:29,15.08833667,0.0001228,53.2184,326.0908,86.6147,273.4986,0.00012344,1.677e-05,0.0,0 STARLINK-5010,1 53930U 22119AW  24073.00173260  .00001677  00000-0  12344-3 0  9998,2 53930  53.2184 326.0908 0001228  86.6147 273.4986 15.08833667 81845,6917.9,95.438,540.614,538.915,0.0
53930.0,STARLINK-5010,PAYLOAD,2024-03-13 09:34:48,15.08839729,0.0001434,53.2183,324.3056,80.6839,279.4316,0.00014009,1.942e-05,0.0,0 STARLINK-5010,1 53930U 22119AW  24073.39916931  .00001942  00000-0  14009-3 0  9995,2 53930  53.2183 324.3056 0001434  80.6839 279.4316 15.08839729 82322,6917.881,95.438,540.738,538.754,0.0
53930.0,STARLINK-5010,PAYLOAD,2024-03-13 22:17:54,15.08831449,0.0001682,53.2178,321.9277,83.2617,276.8566,-2.4895e-05,-6.84e-06,0.0,0 STARLINK-5010,1 53930U 22119AW  24073.92910321 -.00000684  00000-0 -24895-4 0  9990,2 53930  53.2178 321.9277 0001682  83.2617 276.8566 15.08831449 82400,6917.907,95.438,540.935,538.608,0.0
53930.0,STARLINK-5010,PAYLOAD,2024-03-14 03:04:03,15.08839431,0.0001444,53.2186,321.0351,86.8892,273.2265,3.9514e-05,3.41e-06,0.0,0 STARLINK-5010,1 53930U 22119AW  24074.12781657  .00000341  00000-0  39514-4 0  9993,2 53930  53.2186 321.0351 0001444  86.8892 273.2265 15.08839431 82016,6917.882,95.438,540.746,538.748,0.0
53930.0,STARLINK-5010,PAYLOAD,2024-03-14 20:33:17,15.08841172,0.0001519,53.2169,317.764,83.9424,276.1741,4.1088e-05,3.66e-06,0.0,0 STARLINK-5010,1 53930U 22119AW  24074.85645580  .00000366  00000-0  41088-4 0  9993,2 53930  53.2169 317.7640 0001519  83.9424 276.1741 15.08841172 82546,6917.877,95.437,540.793,538.691,0.0
53930.0,STARLINK-5010,PAYLOAD,2024-03-15 21:59:27,15.08842273,0.0001377,53.2177,313.0062,83.4668,276.6481,6.3547e-05,7.24e-06,0.0,0 STARLINK-5010,1 53930U 22119AW  24075.91629478  .00000724  00000-0  63547-4 0  9991,2 53930  53.2177 313.0062 0001377  83.4668 276.6481 15.08842273 82706,6917.873,95.437,540.691,538.786,0.0
53930.0,STARLINK-5010,PAYLOAD,2024-03-16 01:10:14,15.08843727,0.0001391,53.2181,312.4112,83.1066,277.0084,7.3474e-05,8.82e-06,0.0,0 STARLINK-5010,1 53930U 22119AW  24076.04877337  .00000882  00000-0  73474-4 0  9990,2 53930  53.2181 312.4112 0001391  83.1066 277.0084 15.08843727 82300,6917.869,95.437,540.696,538.772,0.0
53930.0,STARLINK-5010,PAYLOAD,2024-03-16 20:14:51,15.0884099,0.0001401,53.2184,308.8382,77.2221,282.8928,1.4025e-05,-6.5e-07,0.0,0 STARLINK-5010,1 53930U 22119AW  24076.84365663 -.00000065  00000-0  14025-4 0  9993,2 53930  53.2184 308.8382 0001401  77.2221 282.8928 15.08840990 82423,6917.877,95.437,540.712,538.773,0.0
